FENGYUN 1C DEB          
1 30572U 99025ALN 17345.96000573 -.00000075  00000-0 -17532-4 0  9998
2 30572  99.0966   3.1091 0025259 196.6617 225.9609 14.06870751556470
